start=new Date('2021-08-26T00:00:00.000Z').valueOf();
sats=[{"OBJECT_ID":"2020-025A","REV_AT_EPOCH":"7533","REF_FRAME":"TEME","RA_OF_ASC_NODE":"345.5380","OBJECT_NAME":"STARLINK-1329","CENTER_NAME":"EARTH","PERIOD":"95.593","FILE":"3103208","NORAD_CAT_ID":"45531","MEAN_MOTION_DOT":"0.00001172","COUNTRY_CODE":"US","PERIAPSIS":"546.517","SEMIMAJOR_AXIS":"6925.371","DECAY_DATE":null,"EPHEMERIS_TYPE":"0","MEAN_MOTION_DDOT":"0.0000000000000","ECCENTRICITY":"0.00010380","BSTAR":"0.00009757300000","APOAPSIS":"547.954","MEAN_MOTION":"15.06392824","OBJECT_TYPE":"PAYLOAD","MEAN_ELEMENT_THEORY":"SGP4","TIME_SYSTEM":"UTC","SITE":"AFETR","TLE_LINE2":"2 45531  53.0551 345.5380 0001038 104.8493 255.2611 15.06392824 75338","RCS_SIZE":"LARGE","ARG_OF_PERICENTER":"104.8493","GP_ID":"183444990","ELEMENT_SET_NO":"999","INCLINATION":"53.0551","TLE_LINE1":"1 45531U 20025A   21237.60985844  .00001172  00000-0  97573-4 0  9992","MEAN_ANOMALY":"255.2611","LAUNCH_DATE":"2020-04-22","CLASSIFICATION_TYPE":"U","EPOCH":"2021-08-25T14:38:11.769216"},{"ECCENTRICITY":"0.00011170","MEAN_MOTION_DDOT":"0.0000000000000","BSTAR":"0.00006847700000","PERIAPSIS":"546.442","DECAY_DATE":null,"SEMIMAJOR_AXIS":"6925.350","EPHEMERIS_TYPE":"0","FILE":"3103208","PERIOD":"95.592","CENTER_NAME":"EARTH","OBJECT_NAME":"STARLINK-1338","MEAN_MOTION_DOT":"0.00000739","COUNTRY_CODE":"US","NORAD_CAT_ID":"45532","OBJECT_ID":"2020-025B","REV_AT_EPOCH":"7533","REF_FRAME":"TEME","RA_OF_ASC_NODE":"345.4949","CLASSIFICATION_TYPE":"U","EPOCH":"2021-08-25T14:54:05.889600","TLE_LINE1":"1 45532U 20025B   21237.62090150  .00000739  00000-0  68477-4 0  9991","LAUNCH_DATE":"2020-04-22","MEAN_ANOMALY":"243.1880","ARG_OF_PERICENTER":"116.9224","RCS_SIZE":"LARGE","INCLINATION":"53.0558","ELEMENT_SET_NO":"999","GP_ID":"183444749","OBJECT_TYPE":"PAYLOAD","APOAPSIS":"547.989","MEAN_MOTION":"15.06399454","TIME_SYSTEM":"UTC","MEAN_ELEMENT_THEORY":"SGP4","TLE_LINE2":"2 45532  53.0558 345.4949 0001117 116.9224 243.1880 15.06399454 75330","SITE":"AFETR"},{"PERIAPSIS":"546.483","EPHEMERIS_TYPE":"0","SEMIMAJOR_AXIS":"6925.345","DECAY_DATE":null,"MEAN_MOTION_DDOT":"0.0000000000000","ECCENTRICITY":"0.00010500","BSTAR":"0.00004154600000","REF_FRAME":"TEME","REV_AT_EPOCH":"7534","OBJECT_ID":"2020-025C","RA_OF_ASC_NODE":"345.1196","OBJECT_NAME":"STARLINK-1339","CENTER_NAME":"EARTH","PERIOD":"95.592","FILE":"3103208","NORAD_CAT_ID":"45533","COUNTRY_CODE":"US","MEAN_MOTION_DOT":"0.00000338","TLE_LINE1":"1 45533U 20025C   21237.70567443  .00000338  00000-0  41546-4 0  9998","MEAN_ANOMALY":"213.5179","LAUNCH_DATE":"2020-04-22","CLASSIFICATION_TYPE":"U","EPOCH":"2021-08-25T16:56:10.270752","MEAN_ELEMENT_THEORY":"SGP4","TIME_SYSTEM":"UTC","MEAN_MOTION":"15.06401180","APOAPSIS":"547.937","OBJECT_TYPE":"PAYLOAD","SITE":"AFETR","TLE_LINE2":"2 45533  53.0567 345.1196 0001050 146.5876 213.5179 15.06401180 75343","RCS_SIZE":"LARGE","ARG_OF_PERICENTER":"146.5876","GP_ID":"183444000","ELEMENT_SET_NO":"999","INCLINATION":"53.0567"},{"SITE":"AFETR","TLE_LINE2":"2 45534  53.0552 345.1548 0001118 112.6880 247.4227 15.06401468 75342","OBJECT_TYPE":"PAYLOAD","APOAPSIS":"547.983","MEAN_MOTION":"15.06401468","TIME_SYSTEM":"UTC","MEAN_ELEMENT_THEORY":"SGP4","ELEMENT_SET_NO":"999","INCLINATION":"53.0552","GP_ID":"183443744","ARG_OF_PERICENTER":"112.6880","RCS_SIZE":"LARGE","MEAN_ANOMALY":"247.4227","LAUNCH_DATE":"2020-04-22","TLE_LINE1":"1 45534U 20025D   21237.69830951  .00001049  00000-0  89318-4 0  9993","CLASSIFICATION_TYPE":"U","EPOCH":"2021-08-25T16:45:33.941664","RA_OF_ASC_NODE":"345.1548","OBJECT_ID":"2020-025D","REV_AT_EPOCH":"7534","REF_FRAME":"TEME","MEAN_MOTION_DOT":"0.00001049","COUNTRY_CODE":"US","NORAD_CAT_ID":"45534","FILE":"3103208","PERIOD":"95.592","OBJECT_NAME":"STARLINK-1341","CENTER_NAME":"EARTH","DECAY_DATE":null,"SEMIMAJOR_AXIS":"6925.344","EPHEMERIS_TYPE":"0","PERIAPSIS":"546.435","BSTAR":"0.00008931800000","ECCENTRICITY":"0.00011180","MEAN_MOTION_DDOT":"0.0000000000000"},{"PERIAPSIS":"546.453","EPHEMERIS_TYPE":"0","SEMIMAJOR_AXIS":"6925.363","DECAY_DATE":null,"MEAN_MOTION_DDOT":"0.0000000000000","ECCENTRICITY":"0.00011190","BSTAR":"-0.00001508000000","REV_AT_EPOCH":"7536","REF_FRAME":"TEME","OBJECT_ID":"2020-025E","RA_OF_ASC_NODE":"344.7737","OBJECT_NAME":"STARLINK-1350","CENTER_NAME":"EARTH","PERIOD":"95.592","FILE":"3103208","NORAD_CAT_ID":"45535","COUNTRY_CODE":"US","MEAN_MOTION_DOT":"-0.00000506","TLE_LINE1":"1 45535U 20025E   21237.78309142 -.00000506  00000-0 -15080-4 0  9991","LAUNCH_DATE":"2020-04-22","MEAN_ANOMALY":"270.3949","EPOCH":"2021-08-25T18:47:39.098688","CLASSIFICATION_TYPE":"U","MEAN_ELEMENT_THEORY":"SGP4","TIME_SYSTEM":"UTC","APOAPSIS":"548.003","MEAN_MOTION":"15.06395340","OBJECT_TYPE":"PAYLOAD","SITE":"AFETR","TLE_LINE2":"2 45535  53.0561 344.7737 0001119  89.7168 270.3949 15.06395340 75361","RCS_SIZE":"LARGE","ARG_OF_PERICENTER":"89.7168","GP_ID":"183444490","ELEMENT_SET_NO":"999","INCLINATION":"53.0561"},{"PERIAPSIS":"546.414","DECAY_DATE":null,"SEMIMAJOR_AXIS":"6925.367","EPHEMERIS_TYPE":"0","ECCENTRICITY":"0.00011810","MEAN_MOTION_DDOT":"0.0000000000000","BSTAR":"-0.00005263400000","OBJECT_ID":"2020-025F","REV_AT_EPOCH":"7532","REF_FRAME":"TEME","RA_OF_ASC_NODE":"345.6497","FILE":"3103042","PERIOD":"95.593","CENTER_NAME":"EARTH","OBJECT_NAME":"STARLINK-1352","COUNTRY_CODE":"US","MEAN_MOTION_DOT":"-0.00001065","NORAD_CAT_ID":"45536","TLE_LINE1":"1 45536U 20025F   21237.58773728 -.00001065  00000-0 -52634-4 0  9992","MEAN_ANOMALY":"243.9358","LAUNCH_DATE":"2020-04-22","CLASSIFICATION_TYPE":"U","EPOCH":"2021-08-25T14:06:20.500992","OBJECT_TYPE":"PAYLOAD","APOAPSIS":"548.050","MEAN_MOTION":"15.06394088","TIME_SYSTEM":"UTC","MEAN_ELEMENT_THEORY":"SGP4","TLE_LINE2":"2 45536  53.0555 345.6497 0001181 116.1753 243.9358 15.06394088 75326","SITE":"AFETR","RCS_SIZE":"LARGE","ARG_OF_PERICENTER":"116.1753","ELEMENT_SET_NO":"999","INCLINATION":"53.0555","GP_ID":"183417789"},{"MEAN_MOTION_DDOT":"0.0000000000000","ECCENTRICITY":"0.00017410","BSTAR":"0.00025470000000","PERIAPSIS":"522.463","SEMIMAJOR_AXIS":"6901.800","DECAY_DATE":null,"EPHEMERIS_TYPE":"0","CENTER_NAME":"EARTH","OBJECT_NAME":"STARLINK-1353","FILE":"3103208","PERIOD":"95.105","NORAD_CAT_ID":"45537","MEAN_MOTION_DOT":"0.00004393","COUNTRY_CODE":"US","OBJECT_ID":"2020-025G","REV_AT_EPOCH":"7563","REF_FRAME":"TEME","RA_OF_ASC_NODE":"324.0794","CLASSIFICATION_TYPE":"U","EPOCH":"2021-08-25T18:20:21.916320","TLE_LINE1":"1 45537U 20025G   21237.76414255  .00004393  00000-0  25470-3 0  9992","LAUNCH_DATE":"2020-04-22","MEAN_ANOMALY":"202.8376","ARG_OF_PERICENTER":"157.2693","RCS_SIZE":"LARGE","GP_ID":"183443500","INCLINATION":"53.0025","ELEMENT_SET_NO":"999","APOAPSIS":"524.867","MEAN_MOTION":"15.14116235","OBJECT_TYPE":"PAYLOAD","MEAN_ELEMENT_THEORY":"SGP4","TIME_SYSTEM":"UTC","TLE_LINE2":"2 45537  53.0025 324.0794 0001741 157.2693 202.8376 15.14116235 75634","SITE":"AFETR"},{"RCS_SIZE":"LARGE","ARG_OF_PERICENTER":"93.9152","GP_ID":"183444245","INCLINATION":"53.0558","ELEMENT_SET_NO":"999","MEAN_ELEMENT_THEORY":"SGP4","TIME_SYSTEM":"UTC","MEAN_MOTION":"15.06395255","APOAPSIS":"548.025","OBJECT_TYPE":"PAYLOAD","SITE":"AFETR","TLE_LINE2":"2 45538  53.0558 344.6316 0001151  93.9152 266.1969 15.06395255 75368","EPOCH":"2021-08-25T19:30:06.919776","CLASSIFICATION_TYPE":"U","TLE_LINE1":"1 45538U 20025H   21237.81258009  .00000997  00000-0  85802-4 0  9994","MEAN_ANOMALY":"266.1969","LAUNCH_DATE":"2020-04-22","CENTER_NAME":"EARTH","OBJECT_NAME":"STARLINK-1362","FILE":"3103208","PERIOD":"95.592","NORAD_CAT_ID":"45538","MEAN_MOTION_DOT":"0.00000997","COUNTRY_CODE":"US","REV_AT_EPOCH":"7536","REF_FRAME":"TEME","OBJECT_ID":"2020-025H","RA_OF_ASC_NODE":"344.6316","MEAN_MOTION_DDOT":"0.0000000000000","ECCENTRICITY":"0.00011510","BSTAR":"0.00008580200000","PERIAPSIS":"546.431","EPHEMERIS_TYPE":"0","SEMIMAJOR_AXIS":"6925.363","DECAY_DATE":null},{"MEAN_ANOMALY":"324.1829","LAUNCH_DATE":"2020-04-22","TLE_LINE1":"1 45539U 20025J   21237.86525199  .00017305  00000-0  13700-3 0  9995","EPOCH":"2021-08-25T20:45:57.771936","CLASSIFICATION_TYPE":"U","SITE":"AFETR","TLE_LINE2":"2 45539  53.0571 287.7675 0002204  35.9336 324.1829 15.71477127 76147","OBJECT_TYPE":"PAYLOAD","APOAPSIS":"356.161","MEAN_MOTION":"15.71477127","TIME_SYSTEM":"UTC","MEAN_ELEMENT_THEORY":"SGP4","ELEMENT_SET_NO":"999","INCLINATION":"53.0571","GP_ID":"183444991","RCS_SIZE":"LARGE","ARG_OF_PERICENTER":"35.9336","DECAY_DATE":null,"SEMIMAJOR_AXIS":"6732.812","EPHEMERIS_TYPE":"0","PERIAPSIS":"353.193","BSTAR":"0.00013700000000","ECCENTRICITY":"0.00022040","MEAN_MOTION_DDOT":"0.0000000000000","RA_OF_ASC_NODE":"287.7675","OBJECT_ID":"2020-025J","REV_AT_EPOCH":"7614","REF_FRAME":"TEME","COUNTRY_CODE":"US","MEAN_MOTION_DOT":"0.00017305","NORAD_CAT_ID":"45539","PERIOD":"91.634","FILE":"3103208","OBJECT_NAME":"STARLINK-1367","CENTER_NAME":"EARTH"},{"ARG_OF_PERICENTER":"136.2048","RCS_SIZE":"LARGE","INCLINATION":"53.0564","ELEMENT_SET_NO":"999","GP_ID":"183444750","TIME_SYSTEM":"UTC","MEAN_ELEMENT_THEORY":"SGP4","OBJECT_TYPE":"PAYLOAD","MEAN_MOTION":"15.06396581","APOAPSIS":"548.009","SITE":"AFETR","TLE_LINE2":"2 45540  53.0564 344.7369 0001133 136.2048 223.9031 15.06396581 75355","CLASSIFICATION_TYPE":"U","EPOCH":"2021-08-25T18:58:16.157856","TLE_LINE1":"1 45540U 20025K   21237.79046479  .00001619  00000-0  12758-3 0  9991","MEAN_ANOMALY":"223.9031","LAUNCH_DATE":"2020-04-22","PERIOD":"95.592","FILE":"3103208","OBJECT_NAME":"STARLINK-1368","CENTER_NAME":"EARTH","COUNTRY_CODE":"US","MEAN_MOTION_DOT":"0.00001619","NORAD_CAT_ID":"45540","REF_FRAME":"TEME","REV_AT_EPOCH":"7535","OBJECT_ID":"2020-025K","RA_OF_ASC_NODE":"344.7369","ECCENTRICITY":"0.00011330","MEAN_MOTION_DDOT":"0.0000000000000","BSTAR":"0.00012758000000","PERIAPSIS":"546.439","EPHEMERIS_TYPE":"0","DECAY_DATE":null,"SEMIMAJOR_AXIS":"6925.359"}];
